STARLINK-30494          
1 57970U 23151G   26068.36049035 -.00001272  00000+0 -35691-4 0  9993
2 57970  43.0027 192.4566 0001155 241.5536 118.5200 15.28417441137406
STARLINK-34254          
1 64136U 25111P   26068.07927978  .00032927  00000+0  12004-2 0  9992
2 64136  43.0010  81.0062 0000276 242.1238 117.9586 15.27589243 45376
